{
  "type": "FeatureCollection",
  "features": [
    {
      "type": "Feature",
      "properties": {
        "norad_id": 66863,
        "name": "STARLINK-36134",
        "group": "last-30-days",
        "lat": -19.389702864293493,
        "lon": -118.08052467177696,
        "alt_km": 416.7713364210158,
        "timestamp": "2025-12-26T09:30:52.342805+00:00",
        "meta_object_name": "STARLINK-36134",
        "meta_object_id": "2025-281R",
        "meta_epoch": "2025-12-26T04:00:01.998720",
        "meta_mean_motion": 15.50522934,
        "meta_eccentricity": 8.38e-05,
        "meta_inclination": 43.0002,
        "meta_ra_of_asc_node": 41.0728,
        "meta_arg_of_pericenter": 272.7737,
        "meta_mean_anomaly": 92.3163,
        "meta_ephemeris_type": 0,
        "meta_classification_type": "U",
        "meta_norad_cat_id": 66863,
        "meta_element_set_no": 999,
        "meta_rev_at_epoch": 354,
        "meta_bstar": 0.0010907,
        "meta_mean_motion_dot": 0.00064042,
        "meta_mean_motion_ddot": 0,
        "tle_line1": "1 66863U 25281R   25360.16668980  .00064042  00000+0  10907-2 0  9991",
        "tle_line2": "2 66863  43.0002  41.0728 0000838 272.7737  92.3163 15.50522934  3548"
      },
      "geometry": {
        "type": "Point",
        "coordinates": [
          -118.08052467177696,
          -19.389702864293493
        ]
      }
    },
    {
      "type": "Feature",
      "properties": {
        "norad_id": 66864,
        "name": "STARLINK-36070",
        "group": "last-30-days",
        "lat": -20.553841140417607,
        "lon": -116.55000376638169,
        "alt_km": 416.5630192322278,
        "timestamp": "2025-12-26T09:30:52.342815+00:00",
        "meta_object_name": "STARLINK-36070",
        "meta_object_id": "2025-281S",
        "meta_epoch": "2025-12-26T04:00:01.998720",
        "meta_mean_motion": 15.50491444,
        "meta_eccentricity": 0.0001186,
        "meta_inclination": 43.0003,
        "meta_ra_of_asc_node": 41.0673,
        "meta_arg_of_pericenter": 247.4516,
        "meta_mean_anomaly": 119.5188,
        "meta_ephemeris_type": 0,
        "meta_classification_type": "U",
        "meta_norad_cat_id": 66864,
        "meta_element_set_no": 999,
        "meta_rev_at_epoch": 357,
        "meta_bstar": 0.0011983,
        "meta_mean_motion_dot": 0.00070372,
        "meta_mean_motion_ddot": 0,
        "tle_line1": "1 66864U 25281S   25360.16668980  .00070372  00000+0  11983-2 0  9990",
        "tle_line2": "2 66864  43.0003  41.0673 0001186 247.4516 119.5188 15.50491444  3573"
      },
      "geometry": {
        "type": "Point",
        "coordinates": [
          -116.55000376638169,
          -20.553841140417607
        ]
      }
    },
    {
      "type": "Feature",
      "properties": {
        "norad_id": 66865,
        "name": "STARLINK-36117",
        "group": "last-30-days",
        "lat": -22.94832029571438,
        "lon": -113.26090755197384,
        "alt_km": 416.90799967309067,
        "timestamp": "2025-12-26T09:30:52.342824+00:00",
        "meta_object_name": "STARLINK-36117",
        "meta_object_id": "2025-281T",
        "meta_epoch": "2025-12-26T04:00:01.998720",
        "meta_mean_motion": 15.50520114,
        "meta_eccentricity": 0.0001206,
        "meta_inclination": 43.0002,
        "meta_ra_of_asc_node": 41.0585,
        "meta_arg_of_pericenter": 273.6821,
        "meta_mean_anomaly": 97.1593,
        "meta_ephemeris_type": 0,
        "meta_classification_type": "U",
        "meta_norad_cat_id": 66865,
        "meta_element_set_no": 999,
        "meta_rev_at_epoch": 354,
        "meta_bstar": 0.0011515,
        "meta_mean_motion_dot": 0.00067654,
        "meta_mean_motion_ddot": 0,
        "tle_line1": "1 66865U 25281T   25360.16668980  .00067654  00000+0  11515-2 0  9991",
        "tle_line2": "2 66865  43.0002  41.0585 0001206 273.6821  97.1593 15.50520114  3543"
      },
      "geometry": {
        "type": "Point",
        "coordinates": [
          -113.26090755197384,
          -22.94832029571438
        ]
      }
    },
    {
      "type": "Feature",
      "properties": {
        "norad_id": 66866,
        "name": "STARLINK-36126",
        "group": "last-30-days",
        "lat": -24.0745656375343,
        "lon": -111.64085646319646,
        "alt_km": 416.7804763008253,
        "timestamp": "2025-12-26T09:30:52.342835+00:00",
        "meta_object_name": "STARLINK-36126",
        "meta_object_id": "2025-281U",
        "meta_epoch": "2025-12-26T04:00:01.998720",
        "meta_mean_motion": 15.50493449,
        "meta_eccentricity": 0.0001153,
        "meta_inclination": 43.0002,
        "meta_ra_of_asc_node": 41.0529,
        "meta_arg_of_pericenter": 242.287,
        "meta_mean_anomaly": 130.4399,
        "meta_ephemeris_type": 0,
        "meta_classification_type": "U",
        "meta_norad_cat_id": 66866,
        "meta_element_set_no": 999,
        "meta_rev_at_epoch": 357,
        "meta_bstar": 0.0011957,
        "meta_mean_motion_dot": 0.0007022,
        "meta_mean_motion_ddot": 0,
        "tle_line1": "1 66866U 25281U   25360.16668980  .00070220  00000+0  11957-2 0  9995",
        "tle_line2": "2 66866  43.0002  41.0529 0001153 242.2870 130.4399 15.50493449  3577"
      },
      "geometry": {
        "type": "Point",
        "coordinates": [
          -111.64085646319646,
          -24.0745656375343
        ]
      }
    },
    {
      "type": "Feature",
      "properties": {
        "norad_id": 66867,
        "name": "STARLINK-36101",
        "group": "last-30-days",
        "lat": -25.25193224332345,
        "lon": -109.88717690330277,
        "alt_km": 416.76074888646326,
        "timestamp": "2025-12-26T09:30:52.342844+00:00",
        "meta_object_name": "STARLINK-36101",
        "meta_object_id": "2025-281V",
        "meta_epoch": "2025-12-26T04:00:01.998720",
        "meta_mean_motion": 15.50521788,
        "meta_eccentricity": 0.0001117,
        "meta_inclination": 43.0001,
        "meta_ra_of_asc_node": 41.0481,
        "meta_arg_of_pericenter": 229.8991,
        "meta_mean_anomaly": 144.7902,
        "meta_ephemeris_type": 0,
        "meta_classification_type": "U",
        "meta_norad_cat_id": 66867,
        "meta_element_set_no": 999,
        "meta_rev_at_epoch": 338,
        "meta_bstar": 0.00097848,
        "meta_mean_motion_dot": 0.00057365,
        "meta_mean_motion_ddot": 0,
        "tle_line1": "1 66867U 25281V   25360.16668980  .00057365  00000+0  97848-3 0  9995",
        "tle_line2": "2 66867  43.0001  41.0481 0001117 229.8991 144.7902 15.50521788  3384"
      },
      "geometry": {
        "type": "Point",
        "coordinates": [
          -109.88717690330277,
          -25.25193224332345
        ]
      }
    },
    {
      "type": "Feature",
      "properties": {
        "norad_id": 66868,
        "name": "STARLINK-36108",
        "group": "last-30-days",
        "lat": -26.322516137222166,
        "lon": -108.23464621170166,
        "alt_km": 416.91863144994386,
        "timestamp": "2025-12-26T09:30:52.342856+00:00",
        "meta_object_name": "STARLINK-36108",
        "meta_object_id": "2025-281W",
        "meta_epoch": "2025-12-26T04:00:01.998720",
        "meta_mean_motion": 15.50488427,
        "meta_eccentricity": 0.0001269,
        "meta_inclination": 43.0001,
        "meta_ra_of_asc_node": 41.0431,
        "meta_arg_of_pericenter": 249.8452,
        "meta_mean_anomaly": 126.7122,
        "meta_ephemeris_type": 0,
        "meta_classification_type": "U",
        "meta_norad_cat_id": 66868,
        "meta_element_set_no": 999,
        "meta_rev_at_epoch": 338,
        "meta_bstar": 0.0012107,
        "meta_mean_motion_dot": 0.00071103,
        "meta_mean_motion_ddot": 0,
        "tle_line1": "1 66868U 25281W   25360.16668980  .00071103  00000+0  12107-2 0  9996",
        "tle_line2": "2 66868  43.0001  41.0431 0001269 249.8452 126.7122 15.50488427  3388"
      },
      "geometry": {
        "type": "Point",
        "coordinates": [
          -108.23464621170166,
          -26.322516137222166
        ]
      }
    },
    {
      "type": "Feature",
      "properties": {
        "norad_id": 66869,
        "name": "STARLINK-36092",
        "group": "last-30-days",
        "lat": -27.417123171849752,
        "lon": -106.48017884878672,
        "alt_km": 416.9824652184125,
        "timestamp": "2025-12-26T09:30:52.342866+00:00",
        "meta_object_name": "STARLINK-36092",
        "meta_object_id": "2025-281X",
        "meta_epoch": "2025-12-26T04:00:01.998720",
        "meta_mean_motion": 15.50484813,
        "meta_eccentricity": 0.0001251,
        "meta_inclination": 43.0001,
        "meta_ra_of_asc_node": 41.0383,
        "meta_arg_of_pericenter": 246.6493,
        "meta_mean_anomaly": 131.8252,
        "meta_ephemeris_type": 0,
        "meta_classification_type": "U",
        "meta_norad_cat_id": 66869,
        "meta_element_set_no": 999,
        "meta_rev_at_epoch": 357,
        "meta_bstar": 0.0011985,
        "meta_mean_motion_dot": 0.00070364,
        "meta_mean_motion_ddot": 0,
        "tle_line1": "1 66869U 25281X   25360.16668980  .00070364  00000+0  11985-2 0  9998",
        "tle_line2": "2 66869  43.0001  41.0383 0001251 246.6493 131.8252 15.50484813  3573"
      },
      "geometry": {
        "type": "Point",
        "coordinates": [
          -106.48017884878672,
          -27.417123171849752
        ]
      }
    }
  ]
}